EUTELSAT QUANTUM        
1 49056U 21069B   26025.81780826  .00000140  00000+0  00000+0 0  9990
2 49056   0.0111  46.3902 0003344 257.5787 163.2449  1.00272004 16505
EUTELSAT KONNECT VHTS   
1 53765U 22110A   26025.64409009  .00000030  00000+0  00000+0 0  9990
2 53765   0.0557  99.3849 0003057 176.8598  83.2593  1.00269037  5403
EUTELSAT HOTBIRD 13F    
1 54048U 22134A   26025.82891826  .00000100  00000+0  00000+0 0  9991
2 54048   0.0584 279.1505 0002199  79.5864  77.7786  1.00271650 11948
EUTELSAT HOTBIRD 13G    
1 54225U 22146A   26025.28945600  .00000101  00000+0  00000+0 0  9992
2 54225   0.0519 242.5971 0001951 302.5065  56.6738  1.00270053  6034
EUTELSAT 10B            
1 54259U 22157A   26025.70530685  .00000081  00000+0  00000+0 0  9998
2 54259   0.0562  97.3656 0000857  56.9623 234.5919  1.00267239 11596
EUTELSAT 36D            
1 59346U 24059A   26025.81780826  .00000000  00000+0  00000+0 0  9990
2 59346   0.0248  74.9805 0000728 223.3930 157.0202  1.00274480  6723
